24793,IRIDIUM 7,1997,100.29,-1.0,-,86.4,Inactive,0,LEO,USA,USA,Unknown,Unknown,Unknown,1 24793U 97020B   25099.32745384  .00000896  00000+0  30274-3 0  9995,2 24793  86.4022 205.7285 0002070  88.0567 272.0867 14.35874539462015,14.35874539,0.000207,LEO
24795,IRIDIUM 5,1997,96.41,-1.0,-,86.39,Inactive,0,LEO,USA,USA,Unknown,Unknown,Unknown,1 24795U 97020D   25099.52437318  .00010627  00000+0  88871-3 0  9993,2 24795  86.3851 115.3922 0111620  26.2139 334.4678 14.93557337475218,14.93557337,0.011162,LEO
24796,IRIDIUM 4,1997,100.22,-1.0,-,86.4,Inactive,0,LEO,USA,USA,Unknown,Unknown,Unknown,1 24796U 97020E   25099.35419917  .00000794  00000+0  26251-3 0  9998,2 24796  86.4021 202.6432 0002240  92.5510 267.5943 14.36782309462618,14.36782309,0.000224,LEO
24836,IRIDIUM 914,1997,99.94,-1.0,-,86.4,Inactive,0,LEO,Kazakhstan,USA,Unknown,Unknown,Unknown,1 24836U 97030A   25099.54930611  .00001116  00000+0  34286-3 0  9990,2 24836  86.3988 211.3632 0003780  91.1073 269.0560 14.40794201597241,14.40794201,0.000378,LEO
24841,IRIDIUM 16,1997,100.09,-1.0,-,86.4,Inactive,0,LEO,Kazakhstan,USA,Unknown,Unknown,Unknown,1 24841U 97030F   25099.40641942  .00001112  00000+0  35675-3 0  9996,2 24841  86.4038 234.1472 0000693   1.4200 358.7000 14.38635731457110,14.38635731,6.93e-05,LEO
24842,IRIDIUM 911,1997,99.48,-1.0,-,86.45,Inactive,0,LEO,Kazakhstan,USA,Unknown,Unknown,Unknown,1 24842U 97030G   25099.40707830  .00001491  00000+0  39995-3 0  9995,2 24842  86.4466 232.9886 0013054 334.7388  25.3175 14.47532273465133,14.47532273,0.0013054,LEO
24870,IRIDIUM 17,1997,100.16,-1.0,-,86.39,Inactive,0,LEO,USA,USA,Unknown,Unknown,Unknown,1 24870U 97034B   25099.49034259  .00001088  00000+0  35550-3 0  9992,2 24870  86.3907 263.6437 0001097 142.7092 217.4182 14.37742505453712,14.37742505,0.0001097,LEO
24871,IRIDIUM 920,1997,99.9,-1.0,-,86.4,Inactive,0,LEO,USA,USA,Unknown,Unknown,Unknown,1 24871U 97034C   25099.64018740  .00001098  00000+0  33260-3 0  9994,2 24871  86.3959 242.9496 0009906 315.2255  44.8144 14.41450851456707,14.41450851,0.0009906,LEO
